QZS-1R                  
1 49336U 21096A   23194.77357384 -.00000330  00000+0  00000+0 0  9991
2 49336  35.2462  95.7262 0758021 271.8645 335.2804  1.00248488  6282
